office_id;agency;branch;broker_owner;address;tel;email;latitude;longitude;postal_address;qa_email;website_url;bdc;;;;;;;
800641;RE/MAX;1st Realty (Saldanha);HQ Administrator;"112 Main Street; Saldanha; 7395";+27 22 714 1531;admin@remaxweskus.co.za;-329850773;179498399;PO BOX 1400; Saldanha;7395;admin@remaxweskus.co.za;www.remax.co.za;Tommy Thompson;;;;;
804071;RE/MAX;1st Realty (St Helena Bay);Darrelle Visser Scheepers; HQ Administrator;"Shop 22 De Palm Lifestyle Centre; St Helena Bay; 7390";022 714 1530;admin@remaxweskus.co.za;-327513887;18011423;PO BOX 1400; Saldanha;7395;admin@remaxweskus.co.za;www.remax.co.za;Tommy Thompson;;;;
800544;RE/MAX;2000 (Florida);HQ Administrator;"464 Ontdekkers Road; Florida Park; Roodepoort; 1709";116742025;remax2000@remax2000.co.za;-261678922;279311558;P O Box 164; Florida Hills;1716;remax2000@remax2000.co.za;www.remax2000.co.za;Valerie Kritzinger;;;;;
75510;RE/MAX;2000 (Lenasia);HQ Administrator;"2 Honeysuckle Road; Lenasia; Ext. 1; 1820";+27 (0) 10 824 4219;remax2000@remax2000.co.za;-263183631;278260747;P O Box 164; Florida Hills;1716;remax2000@remax2000.co.za;www.remax2000.co.za;Valerie Kritzinger;;;;;
803007;RE/MAX;24 (Mauritius);HQ Administrator; Errol Areington;"Coastal Road (B13); Pointe Aux Cannoniers; Grand Bay; Mauritius";+230 2600571 / +230 2600;reception@remax24.com;-20013083;57583793;Coastal Road (B13); Pointe Aux Cannoniers; Grand Bay; Mauritius;reception@remax24.com;www.remax24.com;Tommy Thompson;;;
803535;RE/MAX;24 (Tamarin);Errol Areington; HQ Administrator;"Shop 11 Nautica Commercial Centre; Royal Road; Black River; Mauritius";+230 2600571 / +230 2600;reception@remax24.com.;-20358113;573678394;Shop 11 Nautica Commercial Centre; Royal Road; Black River; Mauritius;errol@remax24.com;www.remax24.com;Tommy Thompson;;;
75508;RE/MAX;ABM Properties (Kwazakhele);Lulekwa Patience Ben Mazwi; HQ Administrator; Patience Ben-Mazwi;"3151 Daku Road. Kwazakhele; Port Elizabeth";041 454 3766;info@remaxabm.co.za;-338806724;255720814;3151 Daku Road. Kwazakhele; Port Elizabeth;info@remaxabm.co.za;;Gavin Van Zyl;;;;
800629;RE/MAX;ABM Properties (Motherwell);Lulekwa Patience Ben Mazwi; HQ Administrator; Patience Ben-Mazwi;"34 Qutsa Street; Motherwell; NU4B";041 462 5524;info@remaxabm.co.za;-33809135;25594067;34 Qutsa Street; Motherwell; NU4B;info@remaxabm.co.za;www.remax.co.za;Gavin van Zyl;;;
800604;RE/MAX;ABM Properties (New Brighton);Lulekwa Patience Ben Mazwi; HQ Administrator; Patience Ben-Mazwi;"30 Ntshekisa Road New Brighton;6200";041 454 3766;info@remaxabm.co.za;-3390524;2558663;30 Ntshekisa Road New Brighton;6200;info@remaxabm.co.za;www.remax.co.za;Gavin van Zyl;;;;
803903;RE/MAX;Above and Beyond (Port Elizabeth);Lesley Ann Nevins Olivier;"172 Cape Road; Mill Park; Port Elizabeth";041 476 0700;reception@remaxcaperoad.co.za;-3395597;2558782;172 Cape Road; Mill Park; Port Elizabeth;reception@remaxcaperoad.co.za;www.remax.co.za;Gavin van Zyl;;;;;
801364;RE/MAX;Above and Beyond (Uitenhage);HQ Administrator;"23 Graaff Reinet Road; Uitenhage; 6229";041 922 0117;reception@remaxcaperoad.co.za;-33758168;25406893;23 Graaff Reinet Road; Uitenhage;6229;reception@remaxcaperoad.co.za;www.remax.co.za;Gavin van Zyl;;;;;
800682;RE/MAX;Address (Berea);HQ Administrator;"38 Montpelier Place; Berea; 4001";031 313 1310;berea@remaxaddress.co.za;-298379113;310175963;P O Box 206; Durban;4000;qualityassurance@remax-address.co.za;www.remax-address.co.za;Valerie Kritzinger;;;;;
75521;RE/MAX;Address (Kloof);HQ Administrator;"Shop 24 Delcairn Lifestyle Centre; Village Road; Kloof; 3610";031 764 1702;kloof@remaxaddress.co.za;-297944992;30839996;P O Box 206; Durban;4000;kloof@remaxaddress.co.za;www.remax-address.co.za;Valerie Kritzinger;;;;;
75520;RE/MAX;Address (Le Domaine);HQ Administrator;"Office 2 Le Domaine Office Block; 100 Acutts Drive; Hillcrest; 3650";+27 31 764 1702;kloof@remaxaddress.co.za;-297619233;307987465;P O Box 206; Durban;4000;kloof@remaxaddress.co.za;;Valerie Kritzinger;;;;;
75504;RE/MAX;Address (Sibaya);HQ Administrator;"Shop 1 Ocean Dune; 2 Heleza Boulevard; Sibaya; Durban";+27 31 568 1169;umhlanga@remaxaddress.co.za;-296830883;311062528;Shop 1 Ocean Dune; 2 Heleza Boulevard; Sibaya; Durban;umhlanga@remaxaddress.co.za;;Valerie Kritzinger;;;;
800684;RE/MAX;Address (Umhlanga);HQ Administrator;"Suite 3306; Umhlanga Arch; 1 Ncondo Place; Umhlanga Ridge 4320";031 561 5032;umhlanga@remaxaddress.co.za;-297279312;310722222;P O Box 206; Durban;4000;qualityassurance@remax-address.co.za;www.remax-address.co.za;Valerie Kritzinger;;;;;
800683;RE/MAX;Address (Upper Highway);HQ Administrator;"41B Old Main Road; Hillcrest; 3610";+27 (0)31 761 4700;kloof@remaxaddress.co.za;-297831487;307635097;P O Box 206; Durban;4000;qualityassurance@remax-address.co.za;www.remax-address.co.za;Valerie Kritzinger;;;;;
800590;RE/MAX;Advance (Bluff);HQ Administrator;"78 Lighthouse Road; Bluff; 4052";031 451 4400;admin@remax-advance.co.za;-29908826;31021155;78 Lighthouse Road; Bluff;4052;admin@remax-advance.co.za;www.remax.co.za;Tommy Thompson;;;;;
800634;RE/MAX;Advance (Queensburgh);HQ Administrator;"244 Main Road; Malvern";031 464 8000;admin@remax-advance.co.za;-298754348;309135053;244 Main Road; Malvern;heind@remax.net;www.remax.co.za;Tommy Thompson;;;;;;
802826;RE/MAX;Advantage (Rosebank);HQ Administrator;"247 Jan Smuts Avenue; Dunkeld West 2196";011 447 6763;frikkie@remax-advantage.co.za;-261436421;280385015;247 Jan Smuts Avenue; Dunkeld West;2196;frikkie@remax-advantage.co.za;;Vanessa Sofianos;;;;;
804078;RE/MAX;All Properties (Thabazimbi);HQ Administrator;"4 Carpe Diem Centre; 13th Avenue; Thabazimbi; 0387";014 161 0369;admin@remax-thabazimbi.co.za;-24590367;27410549;4 Carpe Diem Centre; 13th Avenue; Thabazimbi;387;admin@remax-thabazimbi.co.za;www.remax.co.za;Valerie Kritzinger;;;;
800608;RE/MAX;All Stars (Alberton);HQ Administrator;"81 Nelson Mandela Avenue; Randhart; Alberton; 1449";011 907 6275;jennyd@remax.net;-26285875;2810885;Po Box 5615 Meyersdal;1447;jennyd@remax.net;www.remax.co.za;Vanessa Sofianos;;;;;;
800623;RE/MAX;All Stars (Germiston);HQ Administrator;"126 Webber Rd; Lambton; Germiston; 1401";011 824 4383;jennyd@remax.net;-262447272;281785528;P.O Box 5615; Meyersdal;1447;jennyd@remax.net;www.remax.co.za;Vanessa Sofianos;;;;;
75516;RE/MAX;All Stars (Primrose);HQ Administrator;"48 Main Road; Fishers Hill; Germiston; 1401";+27 010 109 8766;jennyd@remax.net;-26181528;281571623;P.O Box 5615; Meyersdal;1447;jennyd@remax.net;www.remax.co.za;Vanessa Sofianos;;;;;
800540;RE/MAX;Bay (Humewood);HQ Administrator;"1 Beach Road; Humewood; Port Elizabeth; Eastern Cape; 6001";415850771;david@remaxbay.co.za;-339739333;256418782;P O Box 20081; Humewood;6013;laura.m@remaxbay.co.za;www.remaxbay.co.za;Gavin van Zyl;;;;;
800660;RE/MAX;Blue Chip Realty (Moot);Frans Johannes Havenga;"Shop 1D Bouwer Broers; 521 Johan Heyns Drive; Gezina; Pretoria; 0186";012 3350700;hendrik@remaxbluechip.co.za;-25717628;28203109;Shop 1D Bouwer Broers; 521 Johan Heyns Drive; Gezina; Pretoria;186;hendrik@remaxbluechip.co.za;www.remax.co.za;Valerie Kritzinger;;;
800999;RE/MAX;Blue Chip Realty (Val de Grace);Petro Terblanche; Frans Havenga; HQ Administrator; Hendrik Havenga;"HB Forum Building; 13 Stamvrug Street; Val De Grace; Pretoria; 0002";012 4813570;sales2@remaxbluechip.co.za;-257457282;282940927;HB Forum Building; 13 Stamvrug Street; Val De Grace; Pretoria;2;sales2@remaxbluechip.co.za;;Valerie Kritzinger
800596;RE/MAX;Border  (Beacon Bay);HQ Administrator; Mark Attwood;"Unit 1 First Floor; 14 Quenera Drive; Beacon Bay; East London; 5200";043 748 5847;mark@remaxborder.co.za;-329602546;279351756;P O Box 2870 Beacon Bay 5205;mark@remaxborder.co.za;www.remaxborder.co.za;Gavin van Zyl;;;;;;
804073;RE/MAX;Border (Amalinda);HQ Administrator; Mark Attwood; Beverley Muller;"Shop 6; 24 Main Road; Amalinda; East London; 5200";+27 43 748 5847;remaxborder@telkomsa.net;-329957719;2787264909;P O Box 2870 Beacon Bay 5205;remaxborder@telkomsa.net;www.remaxborder.co.za;Gavin van Zyl;;;;;
75519;RE/MAX;Border (Gonubie);HQ Administrator; Mark Attwood;"31 Main Road; Gonubie; East London; 5256";+27 043 050 0350;mark@remaxborder.co.za;-329383331;280100494;P O Box 2870 Beacon Bay 5205;mark@remaxborder.co.za;www.remaxborder.co.za;Gavin van Zyl;;;;;;
800647;RE/MAX;Bushveld (Bela Bela);HQ Administrator;"Shop 35 Bela Mall; R101; Bela Bela; 0480";014 736 6495;bela@remaxbushveld.co.za;-248888444;282934934;PO Box 1972; Bela Bela; Limpopo;480;bela@remaxbushveld.co.za;www.remax.co.za;Vanessa Sofianos;;;;
800601;RE/MAX;Bushveld (Lephalale);Jaco Behrens;"Shop 4 Bosveld Boulevard; Dagbreek Drive; Onverwacht; Lephalale; 0557";014 763 2003;marekting@remaxbushveld.co.za;-23687607;276989461;PO Box 1674 Ellisras 0555;marekting@remaxbushveld.co.za;www.remax.co.za;Vanessa Sofianos;;;;;;;
800673;RE/MAX;Bushveld (Modimolle);HQ Administrator;"8 Nelson Mandela Drive; Modimolle; 0510";014 717 3125;admin@remaxbushveld.co.za;-247124924;28415915;8 Nelson Mandela Drive; Modimolle;510;admin@remaxbushveld.co.za;www.remax.co.za;Vanessa Sofianos;;;;;
802049;RE/MAX;Capital (Hazelwood);HQ Administrator;"Shop 204; The Club Retail Park; 2nd Floor; 30 Elandslaagte Road; Hazelwood; Pretoria; 0081";860022117;info@remaxcapital.co.za;-25771465;282423833;Shop 204; The Club Retail Park; 2nd Floor; 30 Elandslaagte Road; Hazelwood; Pretoria;81;office@remaxtriplea.co.za;;Valerie Kritzinger;
800587;RE/MAX;Capital (Montana);HQ Administrator;"Shop 16 Montana Crossing; cnr Dirk & Veronica Roads; Montana; Pretoria; 0186";860022117;info@remaxdestiny.co.za;-256776736;28242168;P O Box 851 Montana Park;159;info@remaxdestiny.co.za;www.remax-destiny.co.za;Valerie Kritzinger;;;;;;
800617;RE/MAX;Coast And Country (Hibberdene);Mark Jones; HQ Administrator; Jacqueline Booyzen; Pat Symcox; Norman Phillips;"Shop 14 Marlin Mall; Hibberdene; 4220 ";039 699 1036;pat@symprop.co.za;-305819972;305709938;Shop 14 Marlin Mall; Hibberdene;4220;pat@symprop.co.za;www.remax.co.za;Tommy Thompson;
800669;RE/MAX;Coast and Country (Port Shepstone);Mark Jones; HQ Administrator; Jacqueline Booyzen; Pat Symcox; Norman Phillips;"64 Link Road; Umtentweni; Port Shepstone";039 682 4099;pat@symprop.co.za;-307082431;304784546;64 Link Road; Umtentweni; Port Shepstone;pat@symprop.co.za;www.remax.co.za;Tommy Thompson;
804075;RE/MAX;Coast and Country (Scottburgh);Mark Jones; HQ Administrator; Jacqueline Booyzen; Pat Symcox; Norman Phillips;"Shop 1 Sanleen Court; 129 Scott Street; Scottburgh; 4180";+27 39 9781312;pat@symprop.co.za;-302843987;3075603116;Shop 1 Sanleen Court; 129 Scott Street; Scottburgh;4180;symmo@scottnet.co.za;;Tommy Thompson
801745;RE/MAX;Coast and Country (Shelly Beach);Mark Jones; HQ Administrator; Jacqueline Booyzen; Pat Symcox; Norman Phillips;"Shop 4 Staffordshire Place; Lot 117 Marine Drive; Shelly Beach; 4265";27393151076;pat@symprop.co.za;-307743842;304308807;Shop 4 Staffordshire Place; Lot 117 Marine Drive; Shelly Beach;4265;;;
804070;RE/MAX;Coast and Country (Southbroom);Mark Jones; HQ Administrator; Jacqueline Booyzen; Pat Symcox; Norman Phillips;"Shop No. 4A Ilala Boulevard; Gilbert Road; Southbroom; 4277";+27 39 315 1076;pat@symprop.co.za;-309144102;303239035;Shop No. 4A Ilala Boulevard; Gilbert Road; Southbroom;4277;pat@symprop.co.za;www.remax.co.za;Tommy Thompson
800643;RE/MAX;Coastal (Knysna);Schalk Van Der Merwe; HQ Administrator; Chris Van Der Merwe;"Sawtooth Building;  Sawtooth Lane; Thesen Harbour Town; Thesen Island; Knysna; 6570";044 382 5722;admin@remaxcoastal.co.za;-340482752;230487137;Sawtooth Building; Sawtooth Lane;Thesen Harbour Town; Thesen Island; Knysna;6570;;;
800605;RE/MAX;Country Classic (Ladybrand);Dale Roberts; HQ Administrator;"33 Prinsloo Street; Ladybrand; 9745";+27 (0)51 924 1032;daleroberts.remax@gmail.com;-291953049;274549672;P O Box 1275; Ladybrand;9745;daleroberts.remax@gmail.com;www.remax.co.za;Gavin van Zyl;;;;
800584;RE/MAX;Country Living (Wellington);HQ Administrator;"7 Kerk Str; Wellington; 7655";021 873 7242;marlizevs@mweb.co.za;-33641172;19004827;P O Box 1142; Wellington;7655;marlizevs@mweb.co.za;www.remaxboland.co.za;Tommy Thompson;;;;;
804065;RE/MAX;Dazzle (Benoni);Susan Weston;"2 Sarel Cilliers Street; Rynfield; Benoni; 1501";011 394 9058;nevbrits@mweb.co.za;-2615724986;2832095336;P O Box 3687;Gleneagles;Aston Manor;1630;nevbrits@mweb.co.za;www.remax.co.za;Vanessa Sofianos;;;;
145;RE/MAX;Dazzle (Kempton Park);Susan Weston;"75 Monument Road; Kempton Park;1619";011 394 9058;nevbrits@mweb.co.za;-2609085;2823665;P O Box 3687;Gleneagles;Aston Manor;1630;nevbrits@mweb.co.za;www.remax.co.za;Vanessa Sofianos;;;;
800557;RE/MAX;De Kloof (Goodwood);HQ Administrator;"147 Vasco Boulevard; Goodwood; 7460";021 592 4483;redekg@mweb.co.za;-338998337;185554728;P O Box 15026; Panorama;7506;redekg@mweb.co.za;www.remax.co.za;Tommy Thompson;;;;;
90;RE/MAX;De Kloof (Panorama);HQ Administrator;"Kaapzicht Business Centre; Cnr. President Swart & Haydn Streets; Panorama; 7500";021 939 8161;general@remaxdekloof.co.za;-338850703;185653981;P O Box 15026; Panorama;7506;general@remaxdekloof.co.za;www.remax.co.za;Tommy Thompson;;;;;
800612;RE/MAX;Diamond (Kimberley);Hedley Collen; HQ Administrator; Geoffrey Whyte; Esti Potgieter;"203 Du Toitspan Road; Belgravia; Kimberley; 8301 ";053 832 2361;geoffrey@remaxdiamond.co.za;-2875588;247641002;PO BOX 3551;Diamond Pavillion; Kimberley;8305;geoffrey@remaxdiamond.co.za;www.remax.co.za;Gavin van Zyl;
800649;RE/MAX;Direct (Allen's Nek);HQ Administrator;"15 Kroton Street North; Weltevreden Park; 1709";011 675 6937;info@remax-direct.co.za;-26134832;27916314;15 Kroton Street North; Weltevreden Park;1709;info@remaxproprentors.co.za;remax.co.za;Vanessa Sofianos;;;;;
1877;RE/MAX;Dolphin Realtors (Ballito);HQ Administrator;"Unit 4B; 29 Sandra Road; Ballito; 4420";032 946 0881;info@remaxdolphin.co.za;-295434832;312139179;P O Box 418; Ballito;4420;info@remaxdolphin.co.za;www.remaxdolphin.co.za;Valerie Kritzinger;;;;;
800580;RE/MAX;Dolphin Realtors (La Mercy);HQ Administrator;"Shop 6; Park Avenue; Desainager; 4400";+27 (0)32 943 1925;info@remaxdolphin.co.za;-29616666;3115163;P O Box 418; Ballito;4420;info@remaxdolphin.co.za;www.remaxdolphin.co.za;Valerie Kritzinger;;;;;
800573;RE/MAX;Dolphin Realtors (Salt Rock);HQ Administrator;"Shop 1B Tiffany's Shopping Centre; Salt Rock; 4391";032 525 4796;info@remaxdolphin.co.za;-294815302;31227938;P O Box 418; Ballito;4420;info@remaxdolphin.co.za;www.remaxdolphin.co.za;Valerie Kritzinger;;;;;
802021;RE/MAX;Dynamique (Windhoek);Nolan Geldenhuys; Amanda Geldenhuys; HQ Administrator;"433 Tsauchab Street; Cimbebasia; Windhoek";+264 85 223 2536;nolan.remax@gmail.com;-22631148;17083451;433 Tsauchab Street; Cimbebasia; Windhoek;nolan.remax@gmail.com;www.remax.co.za;Valerie Kritzinger;;;
803988;RE/MAX;Ebenezer (Soweto);HQ Administrator; Mohau Motaung; Elisa Maponya;"6934 cnr  Wild Chestnut & Protea Boulevard; Protea Glen; Extension 11; 1818";010 140 2512;info@remax-ebenezer.com;-263200389;27826362;6934 cnr  Wild Chestnut & Protea Boulevard; Protea Glen; Extension 11;1818;info@remax-ebenezer.com;www.remax-ebenezer.co.za;Vanessa Sofianos;;
800644;RE/MAX;Eden (Wilderness);Schalk Van Der Merwe; HQ Administrator; Chris Van Der Merwe;"Shop 3; 1 George Street; Wilderness; 6560";044 8770042;admin@remaxeden.co.za;-339941576;225759696;Shop 3; 1 George Street; Wilderness;6560;admin@remaxeden.co.za;www.remax.co.za;Gavin van Zyl;;
804064;RE/MAX;Ekhaya (Welverdiend);HQ Administrator;"20 South Street; Carletonville; 2499";+27 018 786 3460;admin@remaxekhaya.co.za;-263503145;273933762;20 South Street; Carletonville;2499;admin@remaxekhaya.co.za;;Vanessa Sofianos;;;;;
89;RE/MAX;Elite (Plumstead);Charles Haigh; HQ Administrator;"Shop 5 Prospur Centre; Churchill Road; Plumstead; 7800";+27 (0)21 762 0222;info@remax-elite.co.za;-34021168;18483402;P O Box 224 Plumstead;7801;info@remax-elite.co.za;www.remax-elite.co.za;Tommy Thompson;;;;;
187629;RE/MAX;Evolve (Fourways);HQ Administrator;"5 Otto Close; Westlake Business Park; Westlake; 7945";825781514;info@remax-evolve.co.za;-26010339;277397731;5 Otto Close; Westlake Business Park; Westlake;7945;info@remax-evolve.co.za;remax-evolve.co.za;NULL;;;;
800665;RE/MAX;Excellence (Brakpan);HQ Administrator;"25 Hendrik Potgieter Road; Dalview; Brakpan; 1541";011 581 8777;management@remax-excel.co.za;-262430957;283509802;25 Hendrik Potgieter Road; Dalview; Brakpan;1541;management@remax-excel.co.za;www.remax.co.za;Vanessa Sofianos;;;;
800638;RE/MAX;Exclusive (Klerksdorp);HQ Administrator;"55 Buffeldoorn Road; Wilkoppies; Klerksdorp; 2571";+27 (0)18 4681 693;remaxexc@lantic.net;-268245202;266736139;PO Box 14285; Flamwood Walk; Flamwood; Klerksdorp;2535;remaxexc@lantic.net;www.remax.co.za;Vanessa Sofianos;;;
513742;RE/MAX;Exclusive (Stilfontein);HQ Administrator;"1 Winnie Mandela Road; Stilfontein; 2551";184681693;remaxexc@lantic.net;26843307;267413257;PO Box 14285; Flamwood Walk; Flamwood; Klerksdorp;2535;remaxexc@lantic.net;www.remax.co.za;NULL;;;
800692;RE/MAX;Executive Group (Dainfern);HQ Administrator;"Block C Unit 18; Cedar Tree Office Park; Cedar Road; Broadacres; 2021";27 011 467 0721;lee@remaxexec.co.za;-260106888;279952303;Private Bag X153; Postnet Suite 756; Bryanston;lee@remaxexec.co.za;www.remax.co.za;Valerie Kritzinger;;;;;
804067;RE/MAX;Finally Home (Mondeor);HQ Administrator;"155 Columbine Avenue; Mondeor; 2091";+27 11 022 5359;jayson@remax-finallyhome.co.za;-2627291622;2799724067;155 Columbine Avenue; Mondeor;2091;jayson@remax-finallyhome.co.za;;Valerie Kritzinger;;;;;
800609;RE/MAX;Finest (Alberton);HQ Administrator;"55 Hennie Alberts Road; Brakenhurst; Alberton;1449";011 867 3629;admin@remaxfinest.co.za;-263188014;280979551;P O Box 145665; Braken Gardens;1452;admin@remaxfinest.co.za;www.remaxfinest.co.za;Vanessa Sofianos;;;;;
800676;RE/MAX;Finest (Vanderbijlpark);HQ Administrator;"143 Piet Retief Road; Vanderbijlpark";016 932 4192;admin@remaxfinest.co.za;-2672185;2784293;143 Piet Retief Road; Vanderbijlpark;admin@remaxfinest.co.za;www.remaxfinest.co.za;Vanessa Sofianos;;;;;;
800675;RE/MAX;Finest (Walkerville);HQ Administrator;"84 Main Road; Walkerville; 1876";+27 (0) 11 9492834;admin@remaxfinest.co.za;-264150737;279529272;84 Main Road; Walkerville;1876;admin@remaxfinest.co.za;www.remax.co.za;Vanessa Sofianos;;;;;
800543;RE/MAX;First (Bloemfontein);HQ Administrator;"Honey Chambers; Northridge Mall; Kenneth Kaunda Road; Bloemfontein; 9301";051 447 4914;remax@remaxfirst.co.za;-290722289;262345113;P O Box 29830; Danhof;9310;remax@remaxfirst.co.za;www.remaxfirst.co.za;Gavin van Zyl;;;;;
800581;RE/MAX;Frontier (Grahamstown);HQ Administrator;"22 African Street; Grahamstown; 6140";046 622 6061;jean@remaxfrontier.co.za;-333084184;265219239;P O Box 7090; Grahamstown North;6148;jean@remaxfrontier.co.za;www.remaxfrontier.co.za;Gavin van Zyl;;;;;
800678;RE/MAX;Gold (Carletonville);HQ Administrator; Willie Roeland;"Shop 4; 3A Ada Street; Carletonville; 2499";018 786 3850 / 6 / 8;reception@remaxgold.co.za;-263584259;27396245;Shop 4; 3A Ada Street; Carletonville;2499;reception@remaxgold.co.za;www.remax.co.za;Vanessa Sofianos;;;
800574;RE/MAX;Gold (Fochville);HQ Administrator; Willie Roeland;"44 Losberg Avenue; Fochville; 2515";+27 (0)18 771 5229;reception@remaxgold.co.za;-264895371;27494532;P O Box 633; Fochville;2515;reception@remaxgold.co.za;www.remax.co.za;Vanessa Sofianos;;;;
803989;RE/MAX;Goldfields (Welkom);HQ Administrator; Willie Roeland; Ernst   Wepener; Martus De Wet;"Unit 2; Negotium Building; 15 De Kaap Street; Welkom; 9460";057 004 0077;ernst@remaxgoldfields.co.za;-27979327;267413969;Unit 2; Negotium Building; 15 De Kaap Street; Welkom;9460;ernst@remaxgoldfields.co.za;;Gavin van Zyl
75498;RE/MAX;Helderberg (Pringle Bay);Beatrix Joubert; HQ Administrator;"ASK Security Building; 438 Central Road; Pringle Bay; 7196";832864144;info@remax-helderberg.co.za;-34350034;18830534;PO Box 11449; Bloubergrandt;7443;;;;;;;
800616;RE/MAX;Helderberg (Somerset West);Beatrix Joubert; Beatrix Joubert; HQ Administrator; Jose De Abreu;"Shop 28A; Waterstone Village; Main Road; Somerset West;7130";021 852 6464;info@remax-helderberg.co.za;-340697797;188226476;PO Box 11449; Bloubergrandt;7443;info@remax-helderberg.co.za;www.remax.co.za;Tommy Thompson;;
804076;RE/MAX;Helderberg (Stellenbosch);Beatrix Joubert; HQ Administrator; Jose De Abreu;"Shop MS01; Eikestad Mall; 6 Plein Street; Stellenbosch; 7600";+27 (0) 21 054 8393;info@remax-helderberg.co.za;-33936844;1886035;PO Box 11449; Bloubergrandt;7443;info@remaxhelderberg.co.za;;Tommy Thompson;;;
803078;RE/MAX;Helderberg (Strand);Beatrix Joubert; Beatrix Joubert; HQ Administrator; Jose De Abreu;"Shop 7A; Koop Sentrum Building; 86 Beach Road; Strand; 7130";021 853 0822;info@remax-helderberg.co.za;-34117713;188280949;Shop 7A; Koop Sentrum Building; 86 Beach Road; Strand;7130;info@remax-helderberg.co.za;;Tommy Thompson
802329;RE/MAX;Helderstroom (Louis Trichardt);HQ Administrator; Andre  Van Niekerk;"Shop 2;3 & 4; 115 Krogh Street; Louis Trichardt; 0920";872308571;hap@proforumacc.co.za;-230407627;299069569;Shop 2;3 & 4; 115 Krogh Street; Louis Trichardt;920;hap@proforumacc.co.za;www.remax.co.za;Vanessa Sofianos;;
800586;RE/MAX;Heritage (St Lucia);Lourens de Lange; HQ Administrator;"9 Dolfyn Street; St Lucia; 3936";+27 (0)35 590 1717;info@remax-heritage.co.za ;-28377997;32412049;P O Box 267;St Lucia;3936;info@remax-heritage.co.za;www.remax-heritage.co.za;Valerie Kritzinger;;;;
523196;RE/MAX;Home;HQ Administrator;"5 Otto Close; Westlake; Tokai; 7945";825711378;yolandi.rodgers@remax-home.co.za;-34079328;18440331;5 Otto Close; Westlake; Tokai;7945;yolandi.rodgers@remax-home.co.za;NULL;NULL;;;;
800662;RE/MAX;Homefinders (Secunda);HQ Administrator;"8 Charl Cilliers Street; Secunda; 2302";017 634 1024;financial@remaxhomefinders.net;-26511912;29199855;8 Charl Cilliers Street; Secunda;2302;financial@remaxhomefinders.net;www.remax.co.za;Vanessa Sofianos;;;;;
75491;RE/MAX;Horizon (Brits);HQ Administrator;"92 Van Velden Street; Brits; 0250";+27 12 2532996;marilise@remaxhorizon.co.za;-256235494;277438664;92 Van Velden Street; Brits;250;marilise@remaxhorizon.co.za;www.remax.co.za;Valerie Kritzinger;;;;;
800627;RE/MAX;Horizon (Hartbeespoortdam);HQ Administrator;"61 Scott Street; Schoemansville;Hartbeespoortdam; 0260";012 253 2996;marilise@remaxhorizon.co.za;-257286127;278671351;61 Scott Street; Schoemansville;Hartbeespoortdam;260;marilise@remaxhorizon.co.za;www.remax.co.za;Valerie Kritzinger;;;;
804077;RE/MAX;Impact (Athlone);Trevor November; HQ Administrator;"Office No.2; Kromboom Medi-Centre; Kromboom Road; Crawford; 7764";021 7616476;info@remax-impact.co.za;-33973425;18506011;Office No.2; Kromboom Medi-Centre; Kromboom Road; Crawford;7764;athlone@remax-impact.co.za;www.remax.co.za;Tommy Thompson;;
1800;RE/MAX;Impact (Grassy Park);Trevor November; HQ Administrator; Tracy November;"53 Victoria Road; Grassy Park; 7941";021 7051867;info@remax-impact.co.za;-3405324;1848954;53 Victoria Road Grassy Park;7941;info@remax-impact.co.za;;Tommy Thompson;;;;
800613;RE/MAX;In Action (Bronkhorstspruit);Louis Stephanus Van Zyl; HQ Administrator; Gerrie Nel;"27 Rooth Street; Erasmus; Bronkhorstspruit; 1020";;;;;;;;;;;;;
800576;RE/MAX;Independent Properties (Lorraine);Kobie Potgieter; HQ Administrator;"Cnr Centenary & Circular Drive; Lorraine; Port Elizabeth; 6070";041 368 1100;esme@remaxind.co.za;-339680815;25526719;PO BOX 211107; The Fig Tree;6033;esme@remaxind.co.za;www.remaxind.co.za;Gavin van Zyl;;;;
800592;RE/MAX;Independent Properties (Walmer);Kobie Potgieter; HQ Administrator;"171 Main Road; Walmer; 6045";041 581 7414;remaxind@mweb.co.za;-3398082;255777;PO BOX 211107; The Fig Tree;6033;remaxind@mweb.co.za;www.remaxind.co.za;Gavin van Zyl;;;;
803752;RE/MAX;Infinity (Worcester);HQ Administrator;"House Malan; 25/27 Baring Street; Worcester; 6850";+27 23 110 0040;chantel@remaxinfinity.co.za;-33643178;194428623;House Malan; 25/27 Baring Street; Worcester;6850;chantel@remaxinfinity.co.za;;Tommy Thompson;;;;
800611;RE/MAX;Infoglobe (Constantia);HQ Administrator;"477 Mendelsohn Street; Constantia Park; Pretoria; 0081";861273629;marieth@remaxinfo.co.za;-25798461;28287424;477 Mendelsohn Street; Constantia Park; Pretoria;81;marieth@remaxinfo.co.za;www.remaxinfo.co.za;Vanessa Sofianos;;;;
800691;RE/MAX;Infoglobe (Midstream);HQ Administrator;"43 Hornbill Avenue; Rooihuiskraal; Pretoria; 0157";861273629;marieth@remaxinfo.co.za;-2588518;2816024;43 Hornbill Avenue; Rooihuiskraal; Pretoria;157;marieth@remaxinfo.co.za;www.remax.co.za;Vanessa Sofianos;;;;
800646;RE/MAX;Insight Properties (Jeffreys Bay);Jaconi Comley; Jan Smit; HQ Administrator;"17 Da Gama Road; Jeffreys Bay; 6330";+27 42 293 2776;jcomley@remax.net;-34054556;2492283;17 Da Gama Road; Jeffreys Bay;6330;jcomley@remax.net;www.remax.co.za;Gavin van Zyl;;;
358671;RE/MAX;Integrity (Heidelberg);HQ Administrator;"40 HF Verwoerd street; Heidelberg 1441";016 341 6115;admin@remax-integrity.co.za;-26498467;28357782;40 HF Verwoerd street; Heidelberg 1441;admin@remax-integrity.co.za;null;NULL;;;;;;
802155;RE/MAX;Invictus (Middelburg);HQ Administrator;"32 John Magagula Street; Middelburg; 1055";013 243 1315;johan@remax-invictus.co.za;-257787067;29462146;32 John Magagula Street; Middelburg;1055;ackerman.johan@hotmail.com;;Vanessa Sofianos;;;;;
800594;RE/MAX;Jacaranda (Faerie Glen);HQ Administrator;"Block J15 Ground Floor; 107 Haymeadow Street; Faerie Glen; Pretoria; 0081";012 990 9000;info@remax-jacaranda.co.za;-25797915;28326279;P O Box 1837; Faerie Glen;43;info@remax-jacaranda.co.za;www.remax.co.za;Valerie Kritzinger;;;;;
800567;RE/MAX;Jowic (Wierda Park);HQ Administrator;"134 Willem Botha Avenue; Wierda Park; Centurion; 0149";012 653 8920;rudi@remax-jowic.co.za;-258604154;281501057;P O Box 193; Wierda Park;149;rudi@remax-jowic.co.za;www.remax-jowic.co.za;Valerie Kritzinger;;;;;
800597;RE/MAX;Kalahari (Kathu);HQ Administrator; Madeleine de Waal;"F004 Heritage Mall cnr Frikkiemeyer and Rooisand; Kathu; 8446";+27 (0)53 723 2888;madeleine@remaxkathu.co.za;-276914698;230683142;P O Box 1303 Kathu 8446;madeleine@remaxkathu.co.za;www.remax.co.za;Gavin van Zyl;;;;;;
800598;RE/MAX;Kalahari (Kuruman);Elretha Van Der Merwe; HQ Administrator; Madeleine de Waal;"Palermo Mall; 87 Hoof Straat; Kuruman; 8460";+27 (0)53 712 3123;vdmelretha@gmail.com;-274647486;234299734;P O Box 1303; Kathu;8446;vdmelretha@gmail.com;www.remax.co.za;Gavin van Zyl;;;
802623;RE/MAX;Koepel (Parys);HQ Administrator; Rina Lombard; Fanie Lombard;"66A Bree Street; Parys; 9585";056 8112037;fanie.remaxparys@gmail.com;-268982442;274562869;66A Bree Street; Parys;9585;fanie.remaxparys@gmail.com;www.remax.co.za;Vanessa Sofianos;;;
800542;RE/MAX;Kowie (Port Alfred);HQ Administrator; Warwick Heny; Warwick Heny;"54 Campbell Street; Port Alfred; Eastern Cape ;6170 ";+27 (0)46 624 1110;info@remaxkowie.co.za;-33592621;2688537;P O Box 73; Port Alfred 6170;info@remaxkowie.co.za;http://www.remax.co.za/Property-One-Liners/Search/15462018/;Gavin van Zyl;;;;
431657;RE/MAX;LA Prosperite (Otjiwarongo);Thian Giani; HQ Administrator;"17 Hindenburg Street; Erf 188; Otjiwarongo; Nambia";+264 817601145;tgconstruction01@gmail.com;-204515804;16658771;17 Hindenburg Street; Erf 188; Otjiwarongo; Nambia;tgconstruction01@gmail.com;www.remax.co.za;NULL;;;
800585;RE/MAX;Lagoon Estates (Langebaan);Domonick Lodewick; HQ Administrator;Corner Oostewal & Bree Street;;;;;;;;;;;;;;
800645;RE/MAX;Lakes (Sedgefield);Schalk Van Der Merwe; HQ Administrator; Chris Van Der Merwe;"Hooper Building; Main Road; Sedgefield; 6573";044 3431905;admin@remaxlakes.co.za;-340226468;22807572;Hooper Building; Main Road; Sedgefield;6573;admin@remaxlakes.co.za;www.remax.co.za;Gavin van Zyl;;
800556;RE/MAX;Legacy (Potchefstroom);HQ Administrator;"29 Retief Street; Potchefstroom; 2520";+27 (0)18 297 1999;adele@remaxlegacy.co.za;-266919588;270940259;P O Box 36; Potchefstroom;2520;adele@remaxlegacy.co.za;www.remaxwillows.com;Vanessa Sofianos;;;;;
800659;RE/MAX;Legend (Witbank);HQ Administrator;"Shop 7; Retail City; cnr Mandela & OR Tambo Street; Del Judor; Witbank; 1035";872366431;witbank@remax-legend.co.za;-258748381;292381683;Shop 7; Retail City; cnr Mandela & OR Tambo Street; Del Judor; Witbank;1035;witbank@remax-legend.co.za;www.remax.co.za;Vanessa Sofianos;;
800640;RE/MAX;Lifestyle Estates (Nelspruit);Maurice Lodewick; HQ Administrator;"6 Liebe Forum; 6 Liebenberg Street; Nelspruit; 1201";013 741 4999;nelspruit@remaxlowveld.co.za ;-25481209;30986759;6 Liebe Forum; 6 Liebenberg Street; Nelspruit;1201;nelspruit@remaxlowveld.co.za;www.remaxlowveld.co.za;Vanessa Sofianos;;;
800672;RE/MAX;Living (Camps Bay);Gerlinde Moser; Neville van den Berg; HQ Administrator; Susan Watts;"Shop 17; The Promenade; Victoria Road; Camps Bay";021 437 1790;info@remaxliving.co.za;-33953311;18377306;Shop 17; The Promenade; Victoria Road; Camps Bay;alison@remaxliving.co.za;www.remaxliving.co.za;Tommy Thompson;
613724;RE/MAX;Living (De Waterkant);HQ Administrator;"Unit 2 SS Docklands; 70 Prestwich Street; De Waterkant; Cape Town; 8001";+27 21 437 1790;info@remaxliving.co.za;-33912165;18418369;P O Box 21595; Kloof Street;8008;info@remaxliving.co.za;www.remax.co.za;NULL;;;;;
800560;RE/MAX;Living (Gardens);Gerlinde Moser; Neville van den Berg; HQ Administrator; Susan Watts;"76-82 Kloof Street; Gardens; 8001";021 423 4488;info@remaxliving.co.za ;-339330202;184080598;P O Box 21595; Kloof Street;8008;alison@remaxliving.co.za;www.remaxliving.co.za;Tommy Thompson;;
802834;RE/MAX;Living (Milnerton);Gerlinde Moser; Neville van den Berg; HQ Administrator; Susan Watts;"Shop 1 Milnerton Mall; Loxton Rd; Milnerton; 7441";021 551 1312;info@remaxliving.co.za;-33882842;1849548;P O Box 21595; Kloof Street;8008;alison@remaxliving.co.za;;Tommy Thompson;;
802901;RE/MAX;Living (Royal Ascot Milnerton);Gerlinde Moser; Neville van den Berg; HQ Administrator; Susan Watts;"Shop 43 The Paddocks Centre; Racecourse Road; Milnerton; 7441";+27 21 555 0044;info@remaxliving.co.za;-338623797;185029694;P O Box 21595; Kloof Street;8008;alison@remaxliving.co.za;;Tommy Thompson;;
800572;RE/MAX;Living (Sea Point);Gerlinde Moser; Neville van den Berg; HQ Administrator; Susan Watts;"401 Main Road; Sea Point; 8005";021 433 1555;info@remaxliving.co.za;-339181541;183878138;P O Box 21595; Kloof Street;8008;alison@remaxliving.co.za;www.remaxliving.co.za;Tommy Thompson;;
802274;RE/MAX;Maluti (Harrismith);HQ Administrator; Christo Engelbrecht;51A Stuart Street Harrismith  9880;+27 58 6230589;christomengelbrecht@gmail.com;-282704458;291273104;51A Stuart Street Harrismith  9880;christomengelbrecht@gmail.com;www.remax.co.za;Gavin van Zyl;;;;;;
800577;RE/MAX;Marine (Richards Bay);HQ Administrator;"2 Ysterhout; Arboretum; Richards Bay; 3900";035 789 4171;principal@remaxmarine.co.za;-28754616;32058355;P O Box 101011; Meer-en-See;3901;principal@remaxmarine.co.za;www.remax-marine.co.za;Valerie Kritzinger;;;;;
1618;RE/MAX;Masters (Bryanston);Glenn Norton; Annatjie van Niekerk; HQ Administrator; Denise Plank;"Villa Toscana; Block A; 27 Eaton Road; Bryanston;2194";011 463 3199;info@remax-masters.co.za ;-2604269;28019977;P O Box 9048; Weltevreden Park ;1715;info@remax-masters.co.za;www.remax-masters.co.za;Valerie Kritzinger;;
800666;RE/MAX;Masters (Ruimsig);Glenn Norton; Annatjie van Niekerk; HQ Administrator; Denise Plank;"Shop No. 5; Feather Square; Ruimsig; 1732";+27 (0) 011 662 1035 ;info@remax-masters.co.za ;-26067065;27834129;Shop No. 5; Feather Square; Ruimsig;1732;info@remax-masters.co.za;www.remax-masters.co.za;Valerie Kritzinger;
2067;RE/MAX;Masters (Weltevreden Park);Glenn Norton; Annatjie van Niekerk; HQ Administrator; Denise Plank;"1st Floor; Block B; Rock Cottage Office Park; Cnr Christiaan De Wet Road & John Vorster Road; Weltevreden Park; 1715";+27 (0)11 795 1032;info@remax-masters.co.za ;-261044414;279269826;P O Box 9048; Weltevreden Park;1715;info@remax-masters.co.za;www.remax-masters.co.za;Valerie Kritzinger;;
800663;RE/MAX;Masters (Weltevreden Park-Rentals);Glenn Norton; Annatjie van Niekerk; HQ Administrator; Denise Plank;"1 Harebell Street; Weltevreden Park";011 675 1257;info@remax-masters.co.za ;-2611754;2793288;PO Box 9048; Weltevreden Park;1715;info@remax-masters.co.za;www.remax-masters.co.za;Valerie Kritzinger;;
131;RE/MAX;Midlands  (Howick);HQ Administrator;"Suite 1 White House Centre; Main Road; Howick; 3290";033 330 8002;howick@remaxmidlands.co.za;-2948241;30231589;P O Box 1581; Howick;3290;pmb@remaxmidlands.co.za;www.remaxmidlands.co.za;Valerie Kritzinger;;;;;
130;RE/MAX;Midlands (Hilton);HQ Administrator;"Shop 2; 39 Hilton Ave; Hilton;3201";033 343 1661;hilton@remaxmidlands.co.za;-2955535465;3030147926;P O Box 823; Hilton;3245;pmb@remaxmidlands.co.za;www.remaxmidlands.co.za;Valerie Kritzinger;;;;;
128;RE/MAX;Midlands (Pietermaritzburg);HQ Administrator;"Pelham House; 196 Peter Kerchhoff Street; Pietermaritzburg; 3201";333458256;pmb@remaxmidlands.co.za;-29606626;30377282;P O Box 1182; Pietermaritzburg;3200;pmb@remaxmidlands.co.za;www.remaxmidlands.co.za;Valerie Kritzinger;;;;;
803148;RE/MAX;Multitrust Imobiliaria (Angola);HQ Administrator;"Rua Da Karipanda 85; Maianga; Luanda; Angola";+244 923 493363;mibrahim.lis@gmail.com;-8850961;131980448;Rua Da Karipanda 85; Maianga; Luanda; Angola;mibrahim.lis@gmail.com;;Tommy Thompson;;;;
689512;RE/MAX;Multitrust Imobiliaria (Talatona);HQ Administrator;"Belas Shopping Centre; Talatona; Luanda; Angola";+244 923 493363;mibrahim.lis@gmail.com;-8923453;1318614;Belas Shopping Centre; Talatona; Luanda; Angola;mibrahim.lis@gmail.com;NULL;NULL;;;;
800648;RE/MAX;Northland Realty (Polokwane);HQ Administrator;"CorpMD Consulting; Ground Floor; Cnr. Hillary and Phaphos Street; Ismini Park; Bendor; Polokwane; 0699";015 297 1863;reception@remaxnorthland.co.za;-238958017;294712492;PO Box 647; Bendor Park; Polokwane 0713;reception@remaxnorthland.co.za;www.remax.co.za;Vanessa Sofianos;;;;;
804069;RE/MAX;Northland Realty (Tzaneen);HQ Administrator;"1 Fees Street; Arbor Park; Tzaneen; 0850";+27 15 297 1863;phillip@remaxnorthland.co.za;-2383468556;3015327274;PO Box 647; Bendor Park; Polokwane;713;phillip@remaxnorthland.co.za;www.remax.co.za;Vanessa Sofianos;;;;
800693;RE/MAX;Nova (Mossel Bay);HQ Administrator;"Shop 7 - 13 Parsons Avenue; Voorbaai; Mossel Bay; 6500";+27 044 695 1115;info@remaxnova.co.za;-341480524;221013193;PO Box 1797; Mossel Bay;6500;info@remaxnova.co.za;www.remax.co.za;Gavin van Zyl;;;;;
800681;RE/MAX;On Sea (St Francis Bay);Gavin van Zyl;"1 Phillipa Place; St Francis Bay; 6312";042 294 1449;admin@remaxstfrancis.co.za;-341626527;248275003;1 Phillipa Place; St Francis Bay;6312;admin@remaxstfrancis.co.za;www.remax.co.za;Gavin van Zyl;;;;;
800568;RE/MAX;One (Bedfordview);HQ Administrator;"67 van Buuren Road; Bedfordview; 2007";011 615 4911;bedfordview@remaxone.co.za;-261803208;281358115;P O Box 8445; Edenglen;1613;bedfordview@remaxone.co.za;www.remaxone.co.za;Vanessa Sofianos;;;;;
26;RE/MAX;One (Edenvale);HQ Administrator;"15 Linksfield Road; Dunvegan; Edenvale; 1609";011 454 2111;edenvale@remaxone.co.za;-261504401;2814827;P O Box 8445; Edenglen;1613;edenvale@remaxone.co.za;www.remaxone.co.za;Vanessa Sofianos;;;;;
804271;RE/MAX;One (Kramerville);HQ Administrator;"9 Kramer Road; Kramerville; 2148";011 615 4911;kramerville@remaxone.co.za;-260897119;280826769;P O Box 8445; Edenglen;1613;kramerville@remaxone.co.za;;Vanessa Sofianos;;;;;
804068;RE/MAX;One (Thornhill);HQ Administrator;"G25 Flamingo Lake Park; Johannesburg Road; Lakeside; Modderfontein; 1644";+27 11 615 4911;modderfontein@remaxone.co.za;-261001385;2815193583;PO BOX 8445; Edenglen;1613;modderfontein@remaxone.co.za;;Vanessa Sofianos;;;;;
804044;RE/MAX;One (Vaal Marina);Ian Ross; Gary Ross; HQ Administrator;"373 Bass Street; Vaal Marina; 1945";010 109 7141;vaalmarine@remaxone.co.za;-26871;28234;373 Bass Street; Vaal Marina;1945;vaalmarine@remaxone.co.za;;Vanessa Sofianos;;;
804053;RE/MAX;One (Waterfall);HQ Administrator;"Shop 19 The Polofields Crossing; cnr Maxwell & Woodmead Drive; Waterfall; 1739";011 615 4911;ianross@remaxone.co.za;-260621778;280849459;Shop 19 The Polofields Crossing; cnr Maxwell & Woodmead Drive; Waterfall;1739;ianross@remaxone.co.za;www.remaxone.co.za;Vanessa Sofianos;;;;
143;RE/MAX;One Hundred (Fourways);HQ Administrator;"39B Kingfisher Drive; Fourways; 2191";011 465 6769;info@remax-onehundred.co.za;-260286763;280030012;P O Box 1003; Fourways 2055;info@remax-onehundred.co.za;www.remax-onehundred.co.za;Valerie Kritzinger;;;;;;
800615;RE/MAX;Outeniqua (George);HQ Administrator; Jan Gerrit Stenvert;Shop 4 & 5 Tommy Joubert Building South c/o Courtenay and Cradock Street George 6530;+27 (0)44 874 6307;info@remax-outeniqua.co.za ;-33951371;224268975;Postnet Suite 102; Private Bag x 6590; George;6530;info@remax-outeniqua.co.za;www.remax-outeniqua.co.za;Gavin van Zyl;;;
28;RE/MAX;Panache (North Durban);Josh Friedman; Grant Gavin; HQ Administrator;"The Corner; 40 Newport Avenue; Glenashley; 4051";031 572 2136;lalucia@remax-panache.co.za ;-2976169;3105482;The Corner; 40 Newport Avenue; Glenashley;4051;lalucia@remax-panache.co.za;www.remax-panache.co.za;Valerie Kritzinger;;
289571;RE/MAX;Paradise (Seychelles);Justin Coetzee; HQ Administrator;"F20 1st Floor; Eden Plaza; Eden Island; Mahe; Seychelles";2482712210;justin@remax-paradise-seychelles.com;-4640522;55475936;F20 1st Floor; Eden Plaza; Eden Island; Mahe; Seychelles;justin@remax-paradise-seychelles.com;www.remax.co.za;NULL;;
800670;RE/MAX;Platinum (Rustenburg);Glenn Norton; Loelie Ravenscroft; HQ Administrator;"1 ZZQ Building; 194 Kock Street; Rustenburg; 0299";014 010 0006;admin@remaxrtb.co.za ;-256831485;27229781;1 ZZQ Building; 194 Kock Street; Rustenburg;299;admin@remaxrtb.co.za;www.remax.co.za;Valerie Kritzinger;;
800652;RE/MAX;Plus (Kokstad);Brandin Haigh; HQ Administrator; Glynis Smith; Deslyn Walker;"109 Main Road; Kokstad; 4710";039 7274550;info@remaxplus.co.za ;-30546511;29423598;P.O Box 661; Kokstad;4700;info@remaxplus.co.za;www.remax.co.za;Tommy Thompson;;
800621;RE/MAX;Premier (Claremont);HQ Administrator; Kevin Jacobs;"Shop G103B; Cavendish Square; Cavendish Street; Claremont; 7708";021 657 3560;info@remaxpremier.co.za;-339803578;184637956;Suite 70; Private Bag  X 1005; Claremont;7730;info@remaxpremier.co.za;www.remaxpremier.co.za;Tommy Thompson;;;
804072;RE/MAX;Premier (Kommetjie);Kevin Jacobs; HQ Administrator;"Shop 1 Swan Lodge; Main Road; Kommetjie; 7975";021 007 3344;info@remaxpremier.co.za;-34142489;1832737453;Shop 1 Swan Lodge; Main Road; Kommetjie;7975;info@remaxpremier.co.za;www.remaxpremier.co.za;Tommy Thompson;;;
804066;RE/MAX;Premier (Noordhoek);Kevin Jacobs; HQ Administrator;"7 Carlton Close; Sunnydale; Noordhoek; 7975";021 007 3344;info@remaxpremier.co.za;-341240228;1838583;7 Carlton Close; Sunnydale; Noordhoek;7975;info@remaxpremier.co.za;remaxpremier.co.za;Tommy Thompson;;;
800565;RE/MAX;Prime Properties (Plettenberg Bay);Graham Anley; HQ Administrator; Luke Anley;"FNB Building; Main Street; Plettenberg Bay;6600";044 501 4400;remax.plett@mweb.co.za ;-340556899;233720348;P O Box 2196; Plettenberg Bay;6600;remax.plett@mweb.co.za ;www.remaxplett.co.za;Gavin van Zyl;;;
75485;RE/MAX;Property Associates (Atlantis);Caron Leslie; HQ Administrator; Jose De Abreu;"10A Brutus Avenue; Saxonsea; Atlantis";+27 21 521 3100;info@remaxpa.co.za;-3355708;1849151;P O Box 370; Table View;7439;info@remaxpa.co.za;www.remax.co.za;Tommy Thompson;;;
800561;RE/MAX;Property Associates (Brackenfell);Caron Leslie; HQ Administrator;"15 Protea Road; Brackenfell; 7560";+27 (0)21 981 7202;brackenfell@remaxpa.co.za;-3388746;1869434;P O Box 370; Table View;7439;;www.remaxpropertyassociates.co.za;Tommy Thompson;;;;
804074;RE/MAX;Property Associates (Fish Hoek);Caron Leslie; HQ Administrator; Jose De Abreu;"Shop 24A  Valyland Centre; Ivanhoe Road; Fish Hoek; 7974";+27 (0)21 0100778;fishhoek@remaxpa.co.za;-341326059;184209779;PO Box 370; Table View;7439;fishhoek@remaxpa.co.za;www.remax.co.za;Tommy Thompson;;;
800579;RE/MAX;Property Associates (Parklands);Caron Leslie; HQ Administrator; Jose De Abreu;"Shop 19G; Sandown Retail Crossing; Sandown Road; Parklands; 7441";+27 (0)21 554 2527;parklands@remaxpa.co.za;-337997252;18501162;P O Box 370; Tableview;7439;parklands@remaxpa.co.za;www.remaxpropertyassociates.co.za;Tommy Thompson;;;
800583;RE/MAX;Property Associates (Pinelands);Morven Karsten; Caron Leslie; HQ Administrator; Jose De Abreu;"G58 Howard Centre; Pinelands";+27 (0)21 531 4477;pinelands@remaxpa.co.za;-33932868;18510349;P O Box 370; Tableview;7439;pinelands@remaxpa.co.za;www.remaxpropertyassociates.co.za;Tommy Thompson;;
800562;RE/MAX;Property Associates (Table View);Caron Leslie; Jose De Abreu; HQ Administrator;"42 Blaauwberg Road; Table View; 7441";021 521 3100;info@remaxpa.co.za;-3382352;1848239;P O Box 370; Table View;7439;info@remaxpa.co.za;www.remaxpropertyassociates.co.za;Tommy Thompson;;;
800630;RE/MAX;Property Associates (West Beach);Caron Leslie; Jose De Abreu; HQ Administrator;"Shop 3; 8 Sandown Road;West Beach; 7440";+27 (0)21 521 3100;info@remaxpa.co.za;-338073527;18481375;PO Box 370; Tableview;7439;info@remaxpa.co.za;www.remax.co.za;Tommy Thompson;;;
800668;RE/MAX;Property Centre (Bothasig);Trevor Courtney; HQ Administrator; Trevor Courtney; Linda Catherine Roberg;"Shop 47 Bothasig Centre; cnr Vryburger & Tafelberg Street; Bothasig; 7441";+27 (0)21 558 0187  ;remaxbot@mweb.co.za;-3386789;1853319;Shop 47 Bothasig Centre; cnr Vryburger & Tafelberg Street; Bothasig;7441;remaxbot@mweb.co.za;www.remax.co.za;Tommy Thompson;
800564;RE/MAX;Property Centre (Melkbosstrand);Trevor Courtney; HQ Administrator; Trevor Courtney; Linda Catherine Roberg;"Shop 11; Birkenhead Centre; Melkbosstrand; 7441";+27 (0)21 553 1950;remaxmel@mweb.co.za;-33731308;18443931;P O Box 701; Milnerton;7435;remaxmel@mweb.co.za;www.remax.co.za;Tommy Thompson;;
800606;RE/MAX;Property Merchants (Mooikloof);HQ Administrator;"739 Blesbok Street; Pretoria ;0002";012 480 1752/8;info@remaxptaeast.co.za;-258494934;283216072;P O Box 92082; Mooikloof;59;info@remaxptaeast.co.za;www.remax.co.za;Valerie Kritzinger;;;;;
800603;RE/MAX;Property Professionals (Queenstown);Bruce Raasch; HQ Administrator;"46 Prince Alfred Street Queenstown; 5319";+27 (0)45 838 2340;office@remaxqtn.co.za ;-31896489;2688005;PO Box 2593 Komani 5322;office@remaxqtn.co.za;www.remaxqueenstown.co.za;Gavin van Zyl;;;;;;
800622;RE/MAX;Property Specialists (Gaborone);Trish Thomas; HQ Administrator;"Plot 465 Mathangwane Road; Extension 4; Gaborone; Botswana";+267 350 0000;remax@remax.co.bw;-246114599;259373955;P.O. Box 46699 Village; Gaborone;Botswana;remax@remax.co.bw;www.remax.co.za;Valerie Kritzinger;;;;
800607;RE/MAX;Property Specialists (Postmasburg);Adel Karsten; HQ Administrator;"20 Bo Street; Postmasburg; 8420";+27 (0)53 313 0373;adelvz@live.co.za ;-28332781;2306503;20 Bo Street; Postmasburg;8420;adelvz@live.co.za;www.remax.co.za;Gavin van Zyl;;;;
800655;RE/MAX;Propt (Strandfontein);Wayne Theron; HQ Administrator;"211 Dennegeur Avenue; Strandfontein; Mitchells Plain; 7798";021 3933 359;propt@telkomsa.net;-3406967;1856799;211 Dennegeur Avenue; Strandfontein; Mitchells Plain;7798;propt@telkomsa.net;www.remax.co.za;Tommy Thompson;;;
137;RE/MAX;Randgro (Benoni);HQ Administrator; Marika Grove; Jan Grove;"45 Lakefield Avenue; Benoni 1501";+27 (0)11 306 6600;info@remax-randgro.co.za;-2617969252;2828600605;P O Box 1270; Benoni 1500;info@remax-randgro.co.za;www.remax-randgro.co.za;Valerie Kritzinger;;;;
138;RE/MAX;Randgro (Boksburg);HQ Administrator; Marika Grove; Jan Grove;"249 Rondebult Road; Farrar Park; Boksburg; 1459";011 916 6000;info@remax-randgro.co.za ;-262413791;282463804;P O Box 310; Boksburg;1460;info@remax-randgro.co.za;www.remax-randgro.co.za;Valerie Kritzinger;;;
800667;RE/MAX;Real Estate Specialist (Swaziland);HQ Administrator;"Office 2 Bella Park Business Center; Mpumalanga Road; Ezulwini";26878090029;info@remax.co.sz;-263224215;311412912;PO BOX 373; EZULWINI;info@remax.co.sz;www.remax.co.za;Tommy Thompson;;;;;;
800698;RE/MAX;Regional Support Office: Southern Africa (Westlake);Jaco Swarts;"5 Otto Close; Westlake; Cape Town; 7945";+27 (0)21 700 2000;reception@remax.co.za;-3401972222;1846555556;P O Box 30348; Tokai 7945;  Cape Town; South Africa;reception@remax.co.za;www.remax.co.za;;;;;
800571;RE/MAX;Sell-ect (Phoenix);Chantal Singh; Kevin Reddy; HQ Administrator; Deona Padayachee;9 on Rydalvale Drive  Starwood Phoenix 4068;+27 (0)81 208 8322;admin@remax-sellect.com ;-297034249;309984178;P O Box 959; Mt Edgecombe; Durban 4300;admin@remax-sellect.com;www.remax.co.za;Valerie Kritzinger;;
800633;RE/MAX;Superior (Mulbarton);HQ Administrator;"135 Bellairs Drive; Mulbarton; 2190";114323911;fanie@remaxsuperior.co.za;-2629318;2805361;135 Bellairs Drive; Mulbarton;2190;fanie@remaxsuperior.co.za;www.remax.co.za;Vanessa Sofianos;;;;;
800554;RE/MAX;Toti (Amanzimtoti);Kathrine Salvemini; Ricky Jacobs; HQ Administrator;"14 Lewis Drive; Amanzimtoti; 4126";031 903 2220;info@remax-toti.co.za ;-30052372;30881851;P O Box 2122; Amanzimtoti;4125;info@remax-toti.co.za;www.remax-toti.co.za;Tommy Thompson;;;
897463;RE/MAX;Toti (Beach Road);HQ Administrator;"7 Rusoord; Beach Road; Amanzimtoti; 4126";+27 31 9032220;info@remax-toti.co.za;-30054224;30885261;P O Box 2122; Amanzimtoti;4125;info@remax-toti.co.za;www.remax-toti.co.za;NULL;;;;;
800695;RE/MAX;Town and Country (Krugersdorp);HQ Administrator;"246 Voortrekker Avenue; Krugersdorp 1739";010 010 0056;reception@remax-townandcountry.co.za;-2610013;2779661;246 Voortrekker Avenue; Krugersdorp 1739;reception@remax-townandcountry.co.za;www.remax.co.za;Valerie Kritzinger;;;;;;
800664;RE/MAX;Town and Country (Randfontein);HQ Administrator;"113 Kenneth Road; Greenhills; Randfontein; 1759";+27 10 010 0056;reception@remax-townandcountry.co.za;-261665216;276969436;113 Kenneth Road; Greenhills; Randfontein;1759;reception@remax-townandcountry.co.za;www.remax.co.za;Valerie Kritzinger;;;;
800694;RE/MAX;Town and Country (Wilropark);HQ Administrator;"Shop 16; 31 C.R. Swart Drive; Wilropark; Roodepoort; 1724";+27 (0)10 010 0056;reception@remax-townandcountry.co.za;-26119329;27850383;Shop 16; 31 C.R. Swart Drive; Wilropark; Roodepoort;1724;reception@remax-townandcountry.co.za;www.remax.co.za;Valerie Kritzinger;;;
800555;RE/MAX;Tricolor (Pinetown);HQ Administrator;"188 Old Main Road; Cowies Hill; Pinetown; 3610";+27 (0)31 702 1855;pinetown@remaxtricolor.co.za;-29823653;30882905;188 Old Main Road; Cowies Hill; Pinetown;3610;pinetown@remaxtricolor.co.za;www.remaxtricolor.com;Tommy Thompson;;;;
800578;RE/MAX;Tricolor (Westville);HQ Administrator;"Shop 1B Westville Junction; Westville Road; Westville; 3629";+27 (0)31 266 4214;pinetown@remaxtricolor.co.za;-298361714;309143794;Shop 1B Westville Junction; Westville Road; Westville;3629;pinetown@remaxtricolor.com;www.remaxtricolor.com;Tommy Thompson;;;;
804270;RE/MAX;Unlimited (Brackenfell);HQ Administrator;"15 Protea Road; Brackenfell; 7560";219817202;info@remax-unlimited.co.za;-340805573;184341037;15 Protea Road; Brackenfell;7560;info@remax-unlimited.co.za;www.remax.co.za;Tommy Thompson;;;;;
802558;RE/MAX;Valley Properties (Riebeek Kasteel);HQ Administrator;"Unit B; ABSA Building; 7 Hoof Street; Moorreesburg; 7310";828643917;anne@remax-valleyproperties.co.za;-3315574;186624;PO Box 28; Riebeek Kasteel;7307;anne@remax-valleyproperties.co.za;www.remax.co.za;Tommy Thompson;;;;;
800626;RE/MAX;Wildlife Properties (Hoedspruit);HQ Administrator;"R527 Main Road; Hoedspruit; 1380";015 793 0108;annievandenberg@remax.net;-243569814;30948183;PO BOX 916; Hoedspruit;1380;annievandenberg@remax.net;www.remax.co.za;Vanessa Sofianos;;;;;
2080;RE/MAX;Wine and Whales (Hermanus);HQ Administrator;"Optimum Centre; 10 Main Road; Onrusrivier; 7201";010 010 0056;johann@remax-townandcountry.co.za;-344191176;192417712;PO Box 386; Onrus;7201;johan@remax-townandcountry.co.za;;Tommy Thompson;;;;;
804269;RE/MAX;Wine and Whales (Paarl);Francois Johann Larney;"Polo Village Offices B3; Val De Vie Estate; Drakenstein; 7646";010 010 0056;johann@remax-townandcountry.co.za;-33800789;18972359;Polo Village Offices B3; Val De Vie Estate; Drakenstein;7646;johann@remax-townandcountry.co.za;;Tommy Thompson;;;;
801736;RE/MAX;Winners (Burgersfort);Jacques Van Baalen; HQ Administrator; Jacques Van Baalen; Marieta van Baalen;"Unit 9 Lebowa Business Park; Burgersfort; 1150";+27 (0)13 235 2653;remaxwin@lantic.net;-246813666;303349024;Unit 9 Lebowa Business Park; Burgersfort;1150;remaxwin@lantic.net;www.remax.co.za;Vanessa Sofianos;;
800628;RE/MAX;Winners (Lydenburg);Jacques Van Baalen; HQ Administrator; Jacques Van Baalen; Marieta van Baalen;"21 Jansen Street; Lydenburg; 1120";+27 (0)13 235 2653;remaxwin@lantic.net;-25102966;30453331;21 Jansen Street; Lydenburg;1120;remaxwin@lantic.net;www.remax.co.za;Vanessa Sofianos;;
803509;RE/MAX;Winners (Phalaborwa);Jacques Van Baalen; HQ Administrator; Marieta van Baalen;"8C KIAAT STREET; PHALABORWA; 1390";+27 (0)15 781 0609;remaxwin@lantic.net;-23945499;31133577;8C KIAAT STREET; PHALABORWA;1390;remaxwin@lantic.net;www.remax.co.za;Vanessa Sofianos;;;
